TEVEL2-6                
1 63215U 25052F   26068.64958975  .00021046  00000+0  70909-3 0  9996
2 63215  97.4016 325.0381 0004769  95.6604 264.5181 15.30760889 54861
STARLINK-34292          
1 64390U 25127W   26067.63461362  .00040724  00000+0  14807-2 0  9999
2 64390  43.0007 185.9187 0002143 286.8262  73.2355 15.27591666 42303
